ORBCOMM FM37 [-]        
1 33064U 08031E   23317.48816125  .00002222  00000+0  35357-3 0  9992
2 33064  48.4405 219.0000 0005644  45.7480 124.5301 14.75411560828033
ORBCOMM FM40 [-]        
1 33065U 08031F   23317.42808593  .00002482  00000+0  38178-3 0  9999
2 33065  48.4426 210.2335 0006971  54.8155 115.8085 14.76507967828046
ORBCOMM FM109 [+]       
1 40086U 14040A   23317.51194376  .00001103  00000+0  28527-3 0  9990
2 40086  47.0040 238.7473 0001506 177.2634 182.8259 14.56086534496232
ORBCOMM FM107 [+]       
1 40087U 14040B   23317.47748690  .00001286  00000+0  32645-3 0  9998
2 40087  47.0050 239.8462 0000775 123.1592 236.9367 14.56094192496302
ORBCOMM FM106 [-]       
1 40088U 14040C   23317.15820265  .00001639  00000+0  32688-3 0  9992
2 40088  47.0586 107.5561 0018969 248.3571 111.5298 14.66227355497974
ORBCOMM FM111 [-]       
1 40089U 14040D   23317.25243990  .00003114  00000+0  42650-3 0  9998
2 40089  47.0062  28.8632 0034318 297.1958  62.5440 14.80370554503849
ORBCOMM FM104 [-]       
1 40090U 14040E   23317.54391426  .00000964  00000+0  26205-3 0  9998
2 40090  47.0061 266.4884 0016633  68.4989 291.7667 14.54627707495889
