<?xml version="1.0" encoding="UTF-8"?>
<ndm xmlns:xsi="http://www.w3.org/2001/XMLSchema-instance" xsi:noNamespaceSchemaLocation="https://sanaregistry.org/r/ndmxml_unqualified/ndmxml-2.0.0-master-2.0.xsd">
<omm id="CCSDS_OMM_VERS" version="2.0">
<header><CREATION_DATE/><ORIGINATOR/></header><body><segment><metadata><OBJECT_NAME>ORBCOMM FM37 [-]</OBJECT_NAME><OBJECT_ID>2008-031E</OBJECT_ID><CENTER_NAME>EARTH</CENTER_NAME><REF_FRAME>TEME</REF_FRAME><TIME_SYSTEM>UTC</TIME_SYSTEM><MEAN_ELEMENT_THEORY>SGP4</MEAN_ELEMENT_THEORY></metadata><data><meanElements><EPOCH>2023-11-13T11:42:57.132000</EPOCH><MEAN_MOTION>14.75411560</MEAN_MOTION><ECCENTRICITY>.0005644</ECCENTRICITY><INCLINATION>48.4405</INCLINATION><RA_OF_ASC_NODE>219.0000</RA_OF_ASC_NODE><ARG_OF_PERICENTER>45.7480</ARG_OF_PERICENTER><MEAN_ANOMALY>124.5301</MEAN_ANOMALY></meanElements><tleParameters><EPHEMERIS_TYPE>0</EPHEMERIS_TYPE><CLASSIFICATION_TYPE>U</CLASSIFICATION_TYPE><NORAD_CAT_ID>33064</NORAD_CAT_ID><ELEMENT_SET_NO>999</ELEMENT_SET_NO><REV_AT_EPOCH>82803</REV_AT_EPOCH><BSTAR>.35357E-3</BSTAR><MEAN_MOTION_DOT>.2222E-4</MEAN_MOTION_DOT><MEAN_MOTION_DDOT>0</MEAN_MOTION_DDOT></tleParameters></data></segment></body></omm>
<omm id="CCSDS_OMM_VERS" version="2.0">
<header><CREATION_DATE/><ORIGINATOR/></header><body><segment><metadata><OBJECT_NAME>ORBCOMM FM40 [-]</OBJECT_NAME><OBJECT_ID>2008-031F</OBJECT_ID><CENTER_NAME>EARTH</CENTER_NAME><REF_FRAME>TEME</REF_FRAME><TIME_SYSTEM>UTC</TIME_SYSTEM><MEAN_ELEMENT_THEORY>SGP4</MEAN_ELEMENT_THEORY></metadata><data><meanElements><EPOCH>2023-11-13T10:16:26.624352</EPOCH><MEAN_MOTION>14.76507967</MEAN_MOTION><ECCENTRICITY>.0006971</ECCENTRICITY><INCLINATION>48.4426</INCLINATION><RA_OF_ASC_NODE>210.2335</RA_OF_ASC_NODE><ARG_OF_PERICENTER>54.8155</ARG_OF_PERICENTER><MEAN_ANOMALY>115.8085</MEAN_ANOMALY></meanElements><tleParameters><EPHEMERIS_TYPE>0</EPHEMERIS_TYPE><CLASSIFICATION_TYPE>U</CLASSIFICATION_TYPE><NORAD_CAT_ID>33065</NORAD_CAT_ID><ELEMENT_SET_NO>999</ELEMENT_SET_NO><REV_AT_EPOCH>82804</REV_AT_EPOCH><BSTAR>.38178E-3</BSTAR><MEAN_MOTION_DOT>.2482E-4</MEAN_MOTION_DOT><MEAN_MOTION_DDOT>0</MEAN_MOTION_DDOT></tleParameters></data></segment></body></omm>
<omm id="CCSDS_OMM_VERS" version="2.0">
<header><CREATION_DATE/><ORIGINATOR/></header><body><segment><metadata><OBJECT_NAME>ORBCOMM FM109 [+]</OBJECT_NAME><OBJECT_ID>2014-040A</OBJECT_ID><CENTER_NAME>EARTH</CENTER_NAME><REF_FRAME>TEME</REF_FRAME><TIME_SYSTEM>UTC</TIME_SYSTEM><MEAN_ELEMENT_THEORY>SGP4</MEAN_ELEMENT_THEORY></metadata><data><meanElements><EPOCH>2023-11-13T12:17:11.940864</EPOCH><MEAN_MOTION>14.56086534</MEAN_MOTION><ECCENTRICITY>.0001506</ECCENTRICITY><INCLINATION>47.0040</INCLINATION><RA_OF_ASC_NODE>238.7473</RA_OF_ASC_NODE><ARG_OF_PERICENTER>177.2634</ARG_OF_PERICENTER><MEAN_ANOMALY>182.8259</MEAN_ANOMALY></meanElements><tleParameters><EPHEMERIS_TYPE>0</EPHEMERIS_TYPE><CLASSIFICATION_TYPE>U</CLASSIFICATION_TYPE><NORAD_CAT_ID>40086</NORAD_CAT_ID><ELEMENT_SET_NO>999</ELEMENT_SET_NO><REV_AT_EPOCH>49623</REV_AT_EPOCH><BSTAR>.28527E-3</BSTAR><MEAN_MOTION_DOT>.1103E-4</MEAN_MOTION_DOT><MEAN_MOTION_DDOT>0</MEAN_MOTION_DDOT></tleParameters></data></segment></body></omm>
<omm id="CCSDS_OMM_VERS" version="2.0">
<header><CREATION_DATE/><ORIGINATOR/></header><body><segment><metadata><OBJECT_NAME>ORBCOMM FM107 [+]</OBJECT_NAME><OBJECT_ID>2014-040B</OBJECT_ID><CENTER_NAME>EARTH</CENTER_NAME><REF_FRAME>TEME</REF_FRAME><TIME_SYSTEM>UTC</TIME_SYSTEM><MEAN_ELEMENT_THEORY>SGP4</MEAN_ELEMENT_THEORY></metadata><data><meanElements><EPOCH>2023-11-13T11:27:34.868160</EPOCH><MEAN_MOTION>14.56094192</MEAN_MOTION><ECCENTRICITY>.0000775</ECCENTRICITY><INCLINATION>47.0050</INCLINATION><RA_OF_ASC_NODE>239.8462</RA_OF_ASC_NODE><ARG_OF_PERICENTER>123.1592</ARG_OF_PERICENTER><MEAN_ANOMALY>236.9367</MEAN_ANOMALY></meanElements><tleParameters><EPHEMERIS_TYPE>0</EPHEMERIS_TYPE><CLASSIFICATION_TYPE>U</CLASSIFICATION_TYPE><NORAD_CAT_ID>40087</NORAD_CAT_ID><ELEMENT_SET_NO>999</ELEMENT_SET_NO><REV_AT_EPOCH>49630</REV_AT_EPOCH><BSTAR>.32645E-3</BSTAR><MEAN_MOTION_DOT>.1286E-4</MEAN_MOTION_DOT><MEAN_MOTION_DDOT>0</MEAN_MOTION_DDOT></tleParameters></data></segment></body></omm>
<omm id="CCSDS_OMM_VERS" version="2.0">
<header><CREATION_DATE/><ORIGINATOR/></header><body><segment><metadata><OBJECT_NAME>ORBCOMM FM106 [-]</OBJECT_NAME><OBJECT_ID>2014-040C</OBJECT_ID><CENTER_NAME>EARTH</CENTER_NAME><REF_FRAME>TEME</REF_FRAME><TIME_SYSTEM>UTC</TIME_SYSTEM><MEAN_ELEMENT_THEORY>SGP4</MEAN_ELEMENT_THEORY></metadata><data><meanElements><EPOCH>2023-11-13T03:47:48.708960</EPOCH><MEAN_MOTION>14.66227355</MEAN_MOTION><ECCENTRICITY>.0018969</ECCENTRICITY><INCLINATION>47.0586</INCLINATION><RA_OF_ASC_NODE>107.5561</RA_OF_ASC_NODE><ARG_OF_PERICENTER>248.3571</ARG_OF_PERICENTER><MEAN_ANOMALY>111.5298</MEAN_ANOMALY></meanElements><tleParameters><EPHEMERIS_TYPE>0</EPHEMERIS_TYPE><CLASSIFICATION_TYPE>U</CLASSIFICATION_TYPE><NORAD_CAT_ID>40088</NORAD_CAT_ID><ELEMENT_SET_NO>999</ELEMENT_SET_NO><REV_AT_EPOCH>49797</REV_AT_EPOCH><BSTAR>.32688E-3</BSTAR><MEAN_MOTION_DOT>.1639E-4</MEAN_MOTION_DOT><MEAN_MOTION_DDOT>0</MEAN_MOTION_DDOT></tleParameters></data></segment></body></omm>
<omm id="CCSDS_OMM_VERS" version="2.0">
<header><CREATION_DATE/><ORIGINATOR/></header><body><segment><metadata><OBJECT_NAME>ORBCOMM FM111 [-]</OBJECT_NAME><OBJECT_ID>2014-040D</OBJECT_ID><CENTER_NAME>EARTH</CENTER_NAME><REF_FRAME>TEME</REF_FRAME><TIME_SYSTEM>UTC</TIME_SYSTEM><MEAN_ELEMENT_THEORY>SGP4</MEAN_ELEMENT_THEORY></metadata><data><meanElements><EPOCH>2023-11-13T06:03:30.807360</EPOCH><MEAN_MOTION>14.80370554</MEAN_MOTION><ECCENTRICITY>.0034318</ECCENTRICITY><INCLINATION>47.0062</INCLINATION><RA_OF_ASC_NODE>28.8632</RA_OF_ASC_NODE><ARG_OF_PERICENTER>297.1958</ARG_OF_PERICENTER><MEAN_ANOMALY>62.5440</MEAN_ANOMALY></meanElements><tleParameters><EPHEMERIS_TYPE>0</EPHEMERIS_TYPE><CLASSIFICATION_TYPE>U</CLASSIFICATION_TYPE><NORAD_CAT_ID>40089</NORAD_CAT_ID><ELEMENT_SET_NO>999</ELEMENT_SET_NO><REV_AT_EPOCH>50384</REV_AT_EPOCH><BSTAR>.4265E-3</BSTAR><MEAN_MOTION_DOT>.3114E-4</MEAN_MOTION_DOT><MEAN_MOTION_DDOT>0</MEAN_MOTION_DDOT></tleParameters></data></segment></body></omm>
<omm id="CCSDS_OMM_VERS" version="2.0">
<header><CREATION_DATE/><ORIGINATOR/></header><body><segment><metadata><OBJECT_NAME>ORBCOMM FM104 [-]</OBJECT_NAME><OBJECT_ID>2014-040E</OBJECT_ID><CENTER_NAME>EARTH</CENTER_NAME><REF_FRAME>TEME</REF_FRAME><TIME_SYSTEM>UTC</TIME_SYSTEM><MEAN_ELEMENT_THEORY>SGP4</MEAN_ELEMENT_THEORY></metadata><data><meanElements><EPOCH>2023-11-13T13:03:14.192064</EPOCH><MEAN_MOTION>14.54627707</MEAN_MOTION><ECCENTRICITY>.0016633</ECCENTRICITY><INCLINATION>47.0061</INCLINATION><RA_OF_ASC_NODE>266.4884</RA_OF_ASC_NODE><ARG_OF_PERICENTER>68.4989</ARG_OF_PERICENTER><MEAN_ANOMALY>291.7667</MEAN_ANOMALY></meanElements><tleParameters><EPHEMERIS_TYPE>0</EPHEMERIS_TYPE><CLASSIFICATION_TYPE>U</CLASSIFICATION_TYPE><NORAD_CAT_ID>40090</NORAD_CAT_ID><ELEMENT_SET_NO>999</ELEMENT_SET_NO><REV_AT_EPOCH>49588</REV_AT_EPOCH><BSTAR>.26205E-3</BSTAR><MEAN_MOTION_DOT>.964E-5</MEAN_MOTION_DOT><MEAN_MOTION_DDOT>0</MEAN_MOTION_DDOT></tleParameters></data></segment></body></omm>

</ndm>
